{
  "type": "FeatureCollection",
  "features": [
    {
      "type": "Feature",
      "properties": {
        "norad_id": 47116,
        "name": "COSMOS 2251 DEB",
        "group": "cosmos-2251-debris",
        "lat": 68.12083809872775,
        "lon": -7.0556195380598625,
        "alt_km": 577.3029029278614,
        "timestamp": "2025-12-23T16:57:12.753465+00:00",
        "meta_object_name": "COSMOS 2251 DEB",
        "meta_object_id": "1993-036BYJ",
        "meta_epoch": "2025-12-22T09:13:54.172992",
        "meta_mean_motion": 14.98590739,
        "meta_eccentricity": 0.00212329,
        "meta_inclination": 74.0216,
        "meta_ra_of_asc_node": 221.1484,
        "meta_arg_of_pericenter": 314.2258,
        "meta_mean_anomaly": 222.9412,
        "meta_ephemeris_type": 0,
        "meta_classification_type": "U",
        "meta_norad_cat_id": 47116,
        "meta_element_set_no": 999,
        "meta_rev_at_epoch": 59655,
        "meta_bstar": 0.0021038728,
        "meta_mean_motion_dot": 0.000254,
        "meta_mean_motion_ddot": 0,
        "tle_line1": "1 47116U 93036BYJ 25356.38465478  .00025400  00000+0  21039-2 0  9993",
        "tle_line2": "2 47116  74.0216 221.1484 0021232 314.2258 222.9412 14.98590739596555"
      },
      "geometry": {
        "type": "Point",
        "coordinates": [
          -7.0556195380598625,
          68.12083809872775
        ]
      }
    },
    {
      "type": "Feature",
      "properties": {
        "norad_id": 53093,
        "name": "COSMOS 2251 DEB",
        "group": "cosmos-2251-debris",
        "lat": -37.780561093328345,
        "lon": 113.94793964090294,
        "alt_km": 768.4781995834228,
        "timestamp": "2025-12-23T16:57:12.753475+00:00",
        "meta_object_name": "COSMOS 2251 DEB",
        "meta_object_id": "1993-036BYP",
        "meta_epoch": "2025-12-23T04:16:56.577504",
        "meta_mean_motion": 14.41934015,
        "meta_eccentricity": 0.00198218,
        "meta_inclination": 74.0367,
        "meta_ra_of_asc_node": 282.107,
        "meta_arg_of_pericenter": 357.6136,
        "meta_mean_anomaly": 2.4922,
        "meta_ephemeris_type": 0,
        "meta_classification_type": "U",
        "meta_norad_cat_id": 53093,
        "meta_element_set_no": 999,
        "meta_rev_at_epoch": 17876,
        "meta_bstar": 0.00085555431,
        "meta_mean_motion_dot": 2.784e-05,
        "meta_mean_motion_ddot": 0,
        "tle_line1": "1 53093U 93036BYP 25357.17843261  .00002784  00000+0  85555-3 0  9996",
        "tle_line2": "2 53093  74.0367 282.1070 0019821 357.6136   2.4922 14.41934015178761"
      },
      "geometry": {
        "type": "Point",
        "coordinates": [
          113.94793964090294,
          -37.780561093328345
        ]
      }
    }
  ]
}